STARLINK-35249          
1 65901U 25224V   25300.16668980 -.02036457  00000+0 -25922-1 0  9999
2 65901  53.1595 273.9962 0001424  81.5305  31.6690 15.62201175  4405
STARLINK-35278          
1 65902U 25224W   25300.16668980 -.02038013  00000+0 -25944-1 0  9994
2 65902  53.1599 273.9838 0001283  82.9939  35.9553 15.62203225  4428
STARLINK-35210          
1 65903U 25224X   25300.16668980 -.02034859  00000+0 -25899-1 0  9998
2 65903  53.1596 273.9882 0001446  81.6453  35.3871 15.62200619  4402
STARLINK-35348          
1 65904U 25224Y   25300.16668980 -.02036518  00000+0 -25922-1 0  9990
2 65904  53.1597 273.9922 0001419  85.4632  29.6531 15.62201666  4378
STARLINK-35380          
1 65905U 25224Z   25300.16668980 -.02034792  00000+0 -25898-1 0  9995
2 65905  53.1594 273.9808 0001448  78.5565  42.3098 15.62200684  4378
STARLINK-35385          
1 65906U 25224AA  25300.16668980 -.02036734  00000+0 -25925-1 0  9995
2 65906  53.1597 273.9727 0001434  80.1517  44.5484 15.62201925  4409
STARLINK-35347          
1 65907U 25224AB  25300.16668980 -.02034599  00000+0 -25895-1 0  9999
2 65907  53.1599 273.9682 0001407  84.6786  41.9373 15.62201298  4400
STARLINK-35329          
1 65908U 25224AC  25300.16668980 -.02035596  00000+0 -25910-1 0  9996
2 65908  53.1595 273.9761 0001380  81.3549  41.4279 15.62201570  4410
STARLINK-35387          
1 65909U 25224AD  25300.16668980 -.02034250  00000+0 -25891-1 0  9991
2 65909  53.1600 273.9637 0001349  82.3706  46.1638 15.62200531  4373
STARLINK-35523          
1 65910U 25225A   25300.17160722  .00197571  00000+0  13180-2 0  9997
2 65910  53.1604  69.5868 0000764  91.2804 268.8303 15.74256994  3910
STARLINK-35160          
1 65911U 25225B   25300.17127032  .00147239  00000+0  99022-3 0  9991
2 65911  53.1602  69.5855 0000595  63.2144 296.8936 15.74234046  3910
STARLINK-35508          
1 65912U 25225C   25300.17093123  .00164978  00000+0  11064-2 0  9993
2 65912  53.1609  69.5818 0000473  98.7355 261.3718 15.74238686  3918
