CCSDS_OMM_VERS = 2.0
CREATION_DATE  = 
ORIGINATOR     = 

OBJECT_NAME    = STARLINK-35249
OBJECT_ID      = 2025-224V
CENTER_NAME    = EARTH
REF_FRAME      = TEME
TIME_SYSTEM    = UTC
MEAN_ELEMENT_THEORY = SGP/SGP4

EPOCH          = 2025-10-27T04:00:01.998720
MEAN_MOTION    = 15.62201175
ECCENTRICITY   = .0001424
INCLINATION    = 53.1595
RA_OF_ASC_NODE = 273.9962
ARG_OF_PERICENTER = 81.5305
MEAN_ANOMALY   = 31.6690

EPHEMERIS_TYPE = 0
CLASSIFICATION_TYPE = U
NORAD_CAT_ID   = 65901
ELEMENT_SET_NO = 999
REV_AT_EPOCH   = 440
BSTAR          = -.25922E-1
MEAN_MOTION_DOT = -.2036457E-1
MEAN_MOTION_DDOT = 0

CCSDS_OMM_VERS = 2.0
CREATION_DATE  = 
ORIGINATOR     = 

OBJECT_NAME    = STARLINK-35278
OBJECT_ID      = 2025-224W
CENTER_NAME    = EARTH
REF_FRAME      = TEME
TIME_SYSTEM    = UTC
MEAN_ELEMENT_THEORY = SGP/SGP4

EPOCH          = 2025-10-27T04:00:01.998720
MEAN_MOTION    = 15.62203225
ECCENTRICITY   = .0001283
INCLINATION    = 53.1599
RA_OF_ASC_NODE = 273.9838
ARG_OF_PERICENTER = 82.9939
MEAN_ANOMALY   = 35.9553

EPHEMERIS_TYPE = 0
CLASSIFICATION_TYPE = U
NORAD_CAT_ID   = 65902
ELEMENT_SET_NO = 999
REV_AT_EPOCH   = 442
BSTAR          = -.25944E-1
MEAN_MOTION_DOT = -.2038013E-1
MEAN_MOTION_DDOT = 0

CCSDS_OMM_VERS = 2.0
CREATION_DATE  = 
ORIGINATOR     = 

OBJECT_NAME    = STARLINK-35210
OBJECT_ID      = 2025-224X
CENTER_NAME    = EARTH
REF_FRAME      = TEME
TIME_SYSTEM    = UTC
MEAN_ELEMENT_THEORY = SGP/SGP4

EPOCH          = 2025-10-27T04:00:01.998720
MEAN_MOTION    = 15.62200619
ECCENTRICITY   = .0001446
INCLINATION    = 53.1596
RA_OF_ASC_NODE = 273.9882
ARG_OF_PERICENTER = 81.6453
MEAN_ANOMALY   = 35.3871

EPHEMERIS_TYPE = 0
CLASSIFICATION_TYPE = U
NORAD_CAT_ID   = 65903
ELEMENT_SET_NO = 999
REV_AT_EPOCH   = 440
BSTAR          = -.25899E-1
MEAN_MOTION_DOT = -.2034859E-1
MEAN_MOTION_DDOT = 0

CCSDS_OMM_VERS = 2.0
CREATION_DATE  = 
ORIGINATOR     = 

OBJECT_NAME    = STARLINK-35348
OBJECT_ID      = 2025-224Y
CENTER_NAME    = EARTH
REF_FRAME      = TEME
TIME_SYSTEM    = UTC
MEAN_ELEMENT_THEORY = SGP/SGP4

EPOCH          = 2025-10-27T04:00:01.998720
MEAN_MOTION    = 15.62201666
ECCENTRICITY   = .0001419
INCLINATION    = 53.1597
RA_OF_ASC_NODE = 273.9922
ARG_OF_PERICENTER = 85.4632
MEAN_ANOMALY   = 29.6531

EPHEMERIS_TYPE = 0
CLASSIFICATION_TYPE = U
NORAD_CAT_ID   = 65904
ELEMENT_SET_NO = 999
REV_AT_EPOCH   = 437
BSTAR          = -.25922E-1
MEAN_MOTION_DOT = -.2036518E-1
MEAN_MOTION_DDOT = 0

CCSDS_OMM_VERS = 2.0
CREATION_DATE  = 
ORIGINATOR     = 

OBJECT_NAME    = STARLINK-35380
OBJECT_ID      = 2025-224Z
CENTER_NAME    = EARTH
REF_FRAME      = TEME
TIME_SYSTEM    = UTC
MEAN_ELEMENT_THEORY = SGP/SGP4

EPOCH          = 2025-10-27T04:00:01.998720
MEAN_MOTION    = 15.62200684
ECCENTRICITY   = .0001448
INCLINATION    = 53.1594
RA_OF_ASC_NODE = 273.9808
ARG_OF_PERICENTER = 78.5565
MEAN_ANOMALY   = 42.3098

EPHEMERIS_TYPE = 0
CLASSIFICATION_TYPE = U
NORAD_CAT_ID   = 65905
ELEMENT_SET_NO = 999
REV_AT_EPOCH   = 437
BSTAR          = -.25898E-1
MEAN_MOTION_DOT = -.2034792E-1
MEAN_MOTION_DDOT = 0

CCSDS_OMM_VERS = 2.0
CREATION_DATE  = 
ORIGINATOR     = 

OBJECT_NAME    = STARLINK-35385
OBJECT_ID      = 2025-224AA
CENTER_NAME    = EARTH
REF_FRAME      = TEME
TIME_SYSTEM    = UTC
MEAN_ELEMENT_THEORY = SGP/SGP4

EPOCH          = 2025-10-27T04:00:01.998720
MEAN_MOTION    = 15.62201925
ECCENTRICITY   = .0001434
INCLINATION    = 53.1597
RA_OF_ASC_NODE = 273.9727
ARG_OF_PERICENTER = 80.1517
MEAN_ANOMALY   = 44.5484

EPHEMERIS_TYPE = 0
CLASSIFICATION_TYPE = U
NORAD_CAT_ID   = 65906
ELEMENT_SET_NO = 999
REV_AT_EPOCH   = 440
BSTAR          = -.25925E-1
MEAN_MOTION_DOT = -.2036734E-1
MEAN_MOTION_DDOT = 0

CCSDS_OMM_VERS = 2.0
CREATION_DATE  = 
ORIGINATOR     = 

OBJECT_NAME    = STARLINK-35347
OBJECT_ID      = 2025-224AB
CENTER_NAME    = EARTH
REF_FRAME      = TEME
TIME_SYSTEM    = UTC
MEAN_ELEMENT_THEORY = SGP/SGP4

EPOCH          = 2025-10-27T04:00:01.998720
MEAN_MOTION    = 15.62201298
ECCENTRICITY   = .0001407
INCLINATION    = 53.1599
RA_OF_ASC_NODE = 273.9682
ARG_OF_PERICENTER = 84.6786
MEAN_ANOMALY   = 41.9373

EPHEMERIS_TYPE = 0
CLASSIFICATION_TYPE = U
NORAD_CAT_ID   = 65907
ELEMENT_SET_NO = 999
REV_AT_EPOCH   = 440
BSTAR          = -.25895E-1
MEAN_MOTION_DOT = -.2034599E-1
MEAN_MOTION_DDOT = 0

CCSDS_OMM_VERS = 2.0
CREATION_DATE  = 
ORIGINATOR     = 

OBJECT_NAME    = STARLINK-35329
OBJECT_ID      = 2025-224AC
CENTER_NAME    = EARTH
REF_FRAME      = TEME
TIME_SYSTEM    = UTC
MEAN_ELEMENT_THEORY = SGP/SGP4

EPOCH          = 2025-10-27T04:00:01.998720
MEAN_MOTION    = 15.62201570
ECCENTRICITY   = .000138
INCLINATION    = 53.1595
RA_OF_ASC_NODE = 273.9761
ARG_OF_PERICENTER = 81.3549
MEAN_ANOMALY   = 41.4279

EPHEMERIS_TYPE = 0
CLASSIFICATION_TYPE = U
NORAD_CAT_ID   = 65908
ELEMENT_SET_NO = 999
REV_AT_EPOCH   = 441
BSTAR          = -.2591E-1
MEAN_MOTION_DOT = -.2035596E-1
MEAN_MOTION_DDOT = 0

CCSDS_OMM_VERS = 2.0
CREATION_DATE  = 
ORIGINATOR     = 

OBJECT_NAME    = STARLINK-35387
OBJECT_ID      = 2025-224AD
CENTER_NAME    = EARTH
REF_FRAME      = TEME
TIME_SYSTEM    = UTC
MEAN_ELEMENT_THEORY = SGP/SGP4

EPOCH          = 2025-10-27T04:00:01.998720
MEAN_MOTION    = 15.62200531
ECCENTRICITY   = .0001349
INCLINATION    = 53.1600
RA_OF_ASC_NODE = 273.9637
ARG_OF_PERICENTER = 82.3706
MEAN_ANOMALY   = 46.1638

EPHEMERIS_TYPE = 0
CLASSIFICATION_TYPE = U
NORAD_CAT_ID   = 65909
ELEMENT_SET_NO = 999
REV_AT_EPOCH   = 437
BSTAR          = -.25891E-1
MEAN_MOTION_DOT = -.203425E-1
MEAN_MOTION_DDOT = 0

CCSDS_OMM_VERS = 2.0
CREATION_DATE  = 
ORIGINATOR     = 

OBJECT_NAME    = STARLINK-35523
OBJECT_ID      = 2025-225A
CENTER_NAME    = EARTH
REF_FRAME      = TEME
TIME_SYSTEM    = UTC
MEAN_ELEMENT_THEORY = SGP/SGP4

EPOCH          = 2025-10-27T04:07:06.863808
MEAN_MOTION    = 15.74256994
ECCENTRICITY   = .0000764
INCLINATION    = 53.1604
RA_OF_ASC_NODE = 69.5868
ARG_OF_PERICENTER = 91.2804
MEAN_ANOMALY   = 268.8303

EPHEMERIS_TYPE = 0
CLASSIFICATION_TYPE = U
NORAD_CAT_ID   = 65910
ELEMENT_SET_NO = 999
REV_AT_EPOCH   = 391
BSTAR          = .1318E-2
MEAN_MOTION_DOT = .197571E-2
MEAN_MOTION_DDOT = 0

CCSDS_OMM_VERS = 2.0
CREATION_DATE  = 
ORIGINATOR     = 

OBJECT_NAME    = STARLINK-35160
OBJECT_ID      = 2025-225B
CENTER_NAME    = EARTH
REF_FRAME      = TEME
TIME_SYSTEM    = UTC
MEAN_ELEMENT_THEORY = SGP/SGP4

EPOCH          = 2025-10-27T04:06:37.755648
MEAN_MOTION    = 15.74234046
ECCENTRICITY   = .0000595
INCLINATION    = 53.1602
RA_OF_ASC_NODE = 69.5855
ARG_OF_PERICENTER = 63.2144
MEAN_ANOMALY   = 296.8936

EPHEMERIS_TYPE = 0
CLASSIFICATION_TYPE = U
NORAD_CAT_ID   = 65911
ELEMENT_SET_NO = 999
REV_AT_EPOCH   = 391
BSTAR          = .99022E-3
MEAN_MOTION_DOT = .147239E-2
MEAN_MOTION_DDOT = 0

CCSDS_OMM_VERS = 2.0
CREATION_DATE  = 
ORIGINATOR     = 

OBJECT_NAME    = STARLINK-35508
OBJECT_ID      = 2025-225C
CENTER_NAME    = EARTH
REF_FRAME      = TEME
TIME_SYSTEM    = UTC
MEAN_ELEMENT_THEORY = SGP/SGP4

EPOCH          = 2025-10-27T04:06:08.458272
MEAN_MOTION    = 15.74238686
ECCENTRICITY   = .0000473
INCLINATION    = 53.1609
RA_OF_ASC_NODE = 69.5818
ARG_OF_PERICENTER = 98.7355
MEAN_ANOMALY   = 261.3718

EPHEMERIS_TYPE = 0
CLASSIFICATION_TYPE = U
NORAD_CAT_ID   = 65912
ELEMENT_SET_NO = 999
REV_AT_EPOCH   = 391
BSTAR          = .11064E-2
MEAN_MOTION_DOT = .164978E-2
MEAN_MOTION_DDOT = 0

